{
    "links": {
        "self": "http://www.neowsapp.com/rest/v1/neo/3841778?api_key=iIulBulltgU6a56xZRHN4H3l9WmuAYTsLGpBGhQ2"
    },
    "id": "3841778",
    "neo_reference_id": "3841778",
    "name": "(2019 JM3)",
    "designation": "2019 JM3",
    "nasa_jpl_url": "http://ssd.jpl.nasa.gov/sbdb.cgi?sstr=3841778",
    "absolute_magnitude_h": 25.0,
    "estimated_diameter": {
        "kilometers": {
            "estimated_diameter_min": 0.02658,
            "estimated_diameter_max": 0.0594346868
        },
        "meters": {
            "estimated_diameter_min": 26.58,
            "estimated_diameter_max": 59.4346868419
        },
        "miles": {
            "estimated_diameter_min": 0.0165160412,
            "estimated_diameter_max": 0.0369309908
        },
        "feet": {
            "estimated_diameter_min": 87.2047272,
            "estimated_diameter_max": 194.9956979785
        }
    },
    "is_potentially_hazardous_asteroid": false,
    "close_approach_data": [
        {
            "close_approach_date": "2019-05-12",
            "close_approach_date_full": "2019-May-12 18:01",
            "epoch_date_close_approach": 1557684060000,
            "relative_velocity": {
                "kilometers_per_second": "20.2756910351",
                "kilometers_per_hour": "72992.4877264223",
                "miles_per_hour": "45354.6932764539"
            },
            "miss_distance": {
                "astronomical": "0.0276532128",
                "lunar": "10.7570997792",
                "kilometers": "4136861.733536736",
                "miles": "2570526.6843135168"
            },
            "orbiting_body": "Earth"
        }
    ],
    "orbital_data": {
        "orbit_id": "2",
        "orbit_determination_date": "2019-05-12 08:25:28",
        "first_observation_date": "2019-05-08",
        "last_observation_date": "2019-05-11",
        "data_arc_in_days": 3,
        "observations_used": 31,
        "orbit_uncertainty": "9",
        "minimum_orbit_intersection": ".0237189",
        "jupiter_tisserand_invariant": "4.030",
        "epoch_osculation": "2458612.5",
        "eccentricity": ".4455642678742908",
        "semi_major_axis": "1.63197551999219",
        "inclination": "32.95757326410263",
        "ascending_node_longitude": "49.81506530961962",
        "orbital_period": "761.4982099763056",
        "perihelion_distance": ".9048255422381046",
        "perihelion_argument": "234.0662880463902",
        "aphelion_distance": "2.359125497746275",
        "perihelion_time": "2458658.452719703176",
        "mean_anomaly": "338.2757478922267",
        "mean_motion": ".4727522603253415",
        "equinox": "J2000",
        "orbit_class": {
            "orbit_class_type": "APO",
            "orbit_class_description": "Near-Earth asteroid orbits which cross the Earth’s orbit similar to that of 1862 Apollo",
            "orbit_class_range": "a (semi-major axis) > 1.0 AU; q (perihelion) < 1.017 AU"
        }
    },
    "is_sentry_object": false
}